[{"OBJECT_NAME":"STARLINK-30445","OBJECT_ID":"2023-144K","EPOCH":"2026-03-09T22:17:59.654688","MEAN_MOTION":15.2657808,"ECCENTRICITY":0.00037387,"INCLINATION":42.9975,"RA_OF_ASC_NODE":283.8843,"ARG_OF_PERICENTER":74.9249,"MEAN_ANOMALY":285.2015,"EPHEMERIS_TYPE":0,"CLASSIFICATION_TYPE":"U","NORAD_CAT_ID":57873,"ELEMENT_SET_NO":999,"REV_AT_EPOCH":13763,"BSTAR":-0.0010003816,"MEAN_MOTION_DOT":-0.00026871,"MEAN_MOTION_DDOT":0},{"OBJECT_NAME":"TIANMU-1 15","OBJECT_ID":"2024-004A","EPOCH":"2026-03-09T23:35:22.816608","MEAN_MOTION":15.25840188,"ECCENTRICITY":0.00066612,"INCLINATION":97.4675,"RA_OF_ASC_NODE":255.2203,"ARG_OF_PERICENTER":349.0037,"MEAN_ANOMALY":11.1054,"EPHEMERIS_TYPE":0,"CLASSIFICATION_TYPE":"U","NORAD_CAT_ID":58700,"ELEMENT_SET_NO":999,"REV_AT_EPOCH":12064,"BSTAR":0.0003159702,"MEAN_MOTION_DOT":8.018e-5,"MEAN_MOTION_DDOT":0}]
